start=new Date('2022-04-27T00:00:00.000Z').valueOf();
sats=[{"CENTER_NAME":"EARTH","SITE":"AFETR","MEAN_ANOMALY":"270.8488","ECCENTRICITY":"0.00015210","LAUNCH_DATE":"2021-05-15","OBJECT_ID":"2021-041V","BSTAR":"0.00012039000000","INCLINATION":"53.0578","APOAPSIS":"548.247","FILE":"3417474","ELEMENT_SET_NO":"999","RA_OF_ASC_NODE":"3.8948","REF_FRAME":"TEME","RCS_SIZE":"LARGE","CLASSIFICATION_TYPE":"U","COUNTRY_CODE":"US","PERIAPSIS":"546.140","PERIOD":"95.592","ARG_OF_PERICENTER":"89.2676","NORAD_CAT_ID":"48572","TLE_LINE1":"1 48572U 21041V   22116.89776838  .00001512  00000-0  12039-3 0  9999","GP_ID":"202111104","MEAN_ELEMENT_THEORY":"SGP4","OBJECT_TYPE":"PAYLOAD","OBJECT_NAME":"STARLINK-2222","TLE_LINE2":"2 48572  53.0578   3.8948 0001521  89.2676 270.8488 15.06406450 52123","REV_AT_EPOCH":"5212","MEAN_MOTION":"15.06406450","MEAN_MOTION_DOT":"0.00001512","MEAN_MOTION_DDOT":"0.0000000000000","EPHEMERIS_TYPE":"0","EPOCH":"2022-04-26T21:32:47.188032","TIME_SYSTEM":"UTC","DECAY_DATE":null,"SEMIMAJOR_AXIS":"6925.329"},{"NORAD_CAT_ID":"48573","TLE_LINE1":"1 48573U 21041W   22116.87657334  .00000581  00000-0  57913-4 0  9993","PERIOD":"95.592","ARG_OF_PERICENTER":"63.4380","MEAN_ELEMENT_THEORY":"SGP4","GP_ID":"202111356","OBJECT_NAME":"STARLINK-2224","OBJECT_TYPE":"PAYLOAD","MEAN_MOTION":"15.06403314","REV_AT_EPOCH":"5225","TLE_LINE2":"2 48573  53.0560 353.9718 0001455  63.4380 296.6758 15.06403314 52257","MEAN_MOTION_DOT":"0.00000581","MEAN_MOTION_DDOT":"0.0000000000000","EPHEMERIS_TYPE":"0","EPOCH":"2022-04-26T21:02:15.936576","SEMIMAJOR_AXIS":"6925.338","DECAY_DATE":null,"TIME_SYSTEM":"UTC","CENTER_NAME":"EARTH","SITE":"AFETR","OBJECT_ID":"2021-041W","LAUNCH_DATE":"2021-05-15","MEAN_ANOMALY":"296.6758","ECCENTRICITY":"0.00014550","APOAPSIS":"548.211","FILE":"3417474","BSTAR":"0.00005791300000","INCLINATION":"53.0560","RA_OF_ASC_NODE":"353.9718","ELEMENT_SET_NO":"999","REF_FRAME":"TEME","PERIAPSIS":"546.196","COUNTRY_CODE":"US","CLASSIFICATION_TYPE":"U","RCS_SIZE":"LARGE"},{"EPOCH":"2022-04-27T00:00:00.999648","SEMIMAJOR_AXIS":"6925.465","DECAY_DATE":null,"TIME_SYSTEM":"UTC","MEAN_MOTION_DOT":"0.00050274","MEAN_MOTION_DDOT":"0.0000000000000","EPHEMERIS_TYPE":"0","OBJECT_NAME":"STARLINK-2225","OBJECT_TYPE":"PAYLOAD","MEAN_MOTION":"15.06361932","REV_AT_EPOCH":"361","TLE_LINE2":"2 48574  53.0541 323.4270 0001591  57.9625 102.0262 15.06361932  3618","NORAD_CAT_ID":"48574","TLE_LINE1":"1 48574U 21041X   22117.00001157  .00050274  00000-0  33735-2 0  9994","PERIOD":"95.595","ARG_OF_PERICENTER":"57.9625","MEAN_ELEMENT_THEORY":"SGP4","GP_ID":"202110103","REF_FRAME":"TEME","PERIAPSIS":"546.228","COUNTRY_CODE":"US","CLASSIFICATION_TYPE":"U","RCS_SIZE":"LARGE","RA_OF_ASC_NODE":"323.4270","ELEMENT_SET_NO":"999","OBJECT_ID":"2021-041X","LAUNCH_DATE":"2021-05-15","ECCENTRICITY":"0.00015910","MEAN_ANOMALY":"102.0262","APOAPSIS":"548.432","FILE":"3417474","BSTAR":"0.00337350000000","INCLINATION":"53.0541","CENTER_NAME":"EARTH","SITE":"AFETR"},{"MEAN_MOTION_DOT":"0.00044082","MEAN_MOTION_DDOT":"0.0000000000000","EPHEMERIS_TYPE":"0","EPOCH":"2022-04-27T00:00:00.999648","TIME_SYSTEM":"UTC","DECAY_DATE":null,"SEMIMAJOR_AXIS":"6925.438","PERIOD":"95.594","ARG_OF_PERICENTER":"63.7481","NORAD_CAT_ID":"48575","TLE_LINE1":"1 48575U 21041Y   22117.00001157  .00044082  00000-0  29622-2 0  9995","MEAN_ELEMENT_THEORY":"SGP4","GP_ID":"202110350","OBJECT_TYPE":"PAYLOAD","OBJECT_NAME":"STARLINK-2227","TLE_LINE2":"2 48575  53.0532 313.4384 0001471  63.7481 131.2366 15.06370685  3610","REV_AT_EPOCH":"361","MEAN_MOTION":"15.06370685","ELEMENT_SET_NO":"999","RA_OF_ASC_NODE":"313.4384","REF_FRAME":"TEME","RCS_SIZE":"LARGE","CLASSIFICATION_TYPE":"U","COUNTRY_CODE":"US","PERIAPSIS":"546.285","CENTER_NAME":"EARTH","SITE":"AFETR","ECCENTRICITY":"0.00014710","MEAN_ANOMALY":"131.2366","LAUNCH_DATE":"2021-05-15","OBJECT_ID":"2021-041Y","INCLINATION":"53.0532","BSTAR":"0.00296220000000","FILE":"3417474","APOAPSIS":"548.322"},{"MEAN_MOTION_DOT":"0.00028872","MEAN_MOTION_DDOT":"0.0000000000000","EPHEMERIS_TYPE":"0","EPOCH":"2022-04-27T00:00:00.999648","TIME_SYSTEM":"UTC","SEMIMAJOR_AXIS":"6925.422","DECAY_DATE":null,"TLE_LINE1":"1 48576U 21041Z   22117.00001157  .00028872  00000-0  19505-2 0  9994","NORAD_CAT_ID":"48576","ARG_OF_PERICENTER":"53.2849","PERIOD":"95.594","MEAN_ELEMENT_THEORY":"SGP4","GP_ID":"202110604","OBJECT_TYPE":"PAYLOAD","OBJECT_NAME":"STARLINK-2228","TLE_LINE2":"2 48576  53.0587 328.3768 0001804  53.2849 334.0628 15.06376084  3617","MEAN_MOTION":"15.06376084","REV_AT_EPOCH":"361","ELEMENT_SET_NO":"999","RA_OF_ASC_NODE":"328.3768","REF_FRAME":"TEME","COUNTRY_CODE":"US","PERIAPSIS":"546.038","RCS_SIZE":"LARGE","CLASSIFICATION_TYPE":"U","CENTER_NAME":"EARTH","SITE":"AFETR","LAUNCH_DATE":"2021-05-15","MEAN_ANOMALY":"334.0628","ECCENTRICITY":"0.00018040","OBJECT_ID":"2021-041Z","INCLINATION":"53.0587","BSTAR":"0.00195050000000","FILE":"3417474","APOAPSIS":"548.536"},{"MEAN_MOTION_DDOT":"0.0000000000000","EPHEMERIS_TYPE":"0","MEAN_MOTION_DOT":"0.00001300","SEMIMAJOR_AXIS":"6925.338","DECAY_DATE":null,"TIME_SYSTEM":"UTC","EPOCH":"2022-04-26T20:51:39.330144","MEAN_ELEMENT_THEORY":"SGP4","GP_ID":"202110856","NORAD_CAT_ID":"48577","TLE_LINE1":"1 48577U 21041AA  22116.86920521  .00001300  00000-0  10615-3 0  9994","PERIOD":"95.592","ARG_OF_PERICENTER":"71.8071","MEAN_MOTION":"15.06403392","REV_AT_EPOCH":"5225","TLE_LINE2":"2 48577  53.0553 354.0095 0001438  71.8071 288.3074 15.06403392 52259","OBJECT_NAME":"STARLINK-2231","OBJECT_TYPE":"PAYLOAD","RA_OF_ASC_NODE":"354.0095","ELEMENT_SET_NO":"999","COUNTRY_CODE":"US","PERIAPSIS":"546.207","RCS_SIZE":"LARGE","CLASSIFICATION_TYPE":"U","REF_FRAME":"TEME","SITE":"AFETR","CENTER_NAME":"EARTH","APOAPSIS":"548.199","FILE":"3417474","INCLINATION":"53.0553","BSTAR":"0.00010615000000","OBJECT_ID":"2021-041AA","LAUNCH_DATE":"2021-05-15","ECCENTRICITY":"0.00014380","MEAN_ANOMALY":"288.3074"},{"MEAN_MOTION_DOT":"0.00001036","MEAN_MOTION_DDOT":"0.0000000000000","EPHEMERIS_TYPE":"0","EPOCH":"2022-04-26T21:59:17.838816","TIME_SYSTEM":"UTC","SEMIMAJOR_AXIS":"6925.341","DECAY_DATE":null,"TLE_LINE1":"1 48578U 21041AB  22116.91617869  .00001036  00000-0  88431-4 0  9997","NORAD_CAT_ID":"48578","ARG_OF_PERICENTER":"68.8476","PERIOD":"95.592","GP_ID":"202109603","MEAN_ELEMENT_THEORY":"SGP4","OBJECT_TYPE":"PAYLOAD","OBJECT_NAME":"STARLINK-2232","TLE_LINE2":"2 48578  53.0566 353.8133 0001491  68.8476 291.2672 15.06402308 52262","MEAN_MOTION":"15.06402308","REV_AT_EPOCH":"5226","ELEMENT_SET_NO":"999","RA_OF_ASC_NODE":"353.8133","REF_FRAME":"TEME","COUNTRY_CODE":"US","PERIAPSIS":"546.174","CLASSIFICATION_TYPE":"U","RCS_SIZE":"LARGE","CENTER_NAME":"EARTH","SITE":"AFETR","LAUNCH_DATE":"2021-05-15","ECCENTRICITY":"0.00014910","MEAN_ANOMALY":"291.2672","OBJECT_ID":"2021-041AB","INCLINATION":"53.0566","BSTAR":"0.00008843100000","APOAPSIS":"548.239","FILE":"3417474"},{"TLE_LINE1":"1 48579U 21041AC  22116.92449498  .00002626  00000-0  19514-3 0  9991","NORAD_CAT_ID":"48579","ARG_OF_PERICENTER":"64.2856","PERIOD":"95.592","MEAN_ELEMENT_THEORY":"SGP4","GP_ID":"202109850","OBJECT_TYPE":"PAYLOAD","OBJECT_NAME":"STARLINK-2233","TLE_LINE2":"2 48579  53.0563 353.7753 0001720  64.2856 295.8311 15.06402534 52265","MEAN_MOTION":"15.06402534","REV_AT_EPOCH":"5226","MEAN_MOTION_DOT":"0.00002626","MEAN_MOTION_DDOT":"0.0000000000000","EPHEMERIS_TYPE":"0","EPOCH":"2022-04-26T22:11:16.366272","TIME_SYSTEM":"UTC","SEMIMAJOR_AXIS":"6925.341","DECAY_DATE":null,"CENTER_NAME":"EARTH","SITE":"AFETR","LAUNCH_DATE":"2021-05-15","MEAN_ANOMALY":"295.8311","ECCENTRICITY":"0.00017200","OBJECT_ID":"2021-041AC","INCLINATION":"53.0563","BSTAR":"0.00019514000000","APOAPSIS":"548.397","FILE":"3417474","ELEMENT_SET_NO":"999","RA_OF_ASC_NODE":"353.7753","REF_FRAME":"TEME","COUNTRY_CODE":"US","PERIAPSIS":"546.015","RCS_SIZE":"LARGE","CLASSIFICATION_TYPE":"U"},{"TIME_SYSTEM":"UTC","SEMIMAJOR_AXIS":"6925.334","DECAY_DATE":null,"EPOCH":"2022-04-26T22:00:00.999936","MEAN_MOTION_DDOT":"0.0000000000000","EPHEMERIS_TYPE":"0","MEAN_MOTION_DOT":"0.00003870","TLE_LINE2":"2 48580  53.0542 328.8209 0001336  82.8547  57.4427 15.06404849  3604","MEAN_MOTION":"15.06404849","REV_AT_EPOCH":"360","OBJECT_TYPE":"PAYLOAD","OBJECT_NAME":"STARLINK-2234","MEAN_ELEMENT_THEORY":"SGP4","GP_ID":"202111105","NORAD_CAT_ID":"48580","TLE_LINE1":"1 48580U 21041AD  22116.91667824  .00003870  00000-0  27855-3 0  9996","ARG_OF_PERICENTER":"82.8547","PERIOD":"95.592","PERIAPSIS":"546.273","COUNTRY_CODE":"US","CLASSIFICATION_TYPE":"U","RCS_SIZE":"LARGE","REF_FRAME":"TEME","ELEMENT_SET_NO":"999","RA_OF_ASC_NODE":"328.8209","BSTAR":"0.00027855000000","INCLINATION":"53.0542","FILE":"3417474","APOAPSIS":"548.124","LAUNCH_DATE":"2021-05-15","MEAN_ANOMALY":"57.4427","ECCENTRICITY":"0.00013360","OBJECT_ID":"2021-041AD","SITE":"AFETR","CENTER_NAME":"EARTH"},{"EPOCH":"2022-04-26T22:00:00.999936","SEMIMAJOR_AXIS":"6925.384","DECAY_DATE":null,"TIME_SYSTEM":"UTC","MEAN_MOTION_DOT":"0.00015596","EPHEMERIS_TYPE":"0","MEAN_MOTION_DDOT":"0.0000000000000","OBJECT_NAME":"STARLINK-2235","OBJECT_TYPE":"PAYLOAD","MEAN_MOTION":"15.06388346","REV_AT_EPOCH":"359","TLE_LINE2":"2 48581  53.0535 318.8123 0001549  69.4142 285.8781 15.06388346  3590","TLE_LINE1":"1 48581U 21041AE  22116.91667824  .00015596  00000-0  10639-2 0  9996","NORAD_CAT_ID":"48581","PERIOD":"95.593","ARG_OF_PERICENTER":"69.4142","GP_ID":"202111357","MEAN_ELEMENT_THEORY":"SGP4","REF_FRAME":"TEME","COUNTRY_CODE":"US","PERIAPSIS":"546.177","RCS_SIZE":"LARGE","CLASSIFICATION_TYPE":"U","RA_OF_ASC_NODE":"318.8123","ELEMENT_SET_NO":"999","OBJECT_ID":"2021-041AE","LAUNCH_DATE":"2021-05-15","ECCENTRICITY":"0.00015490","MEAN_ANOMALY":"285.8781","APOAPSIS":"548.322","FILE":"3417474","BSTAR":"0.00106390000000","INCLINATION":"53.0535","CENTER_NAME":"EARTH","SITE":"AFETR"}];
